IRIDIUM 112             
1 41925U 17003J   24070.49284979  .00000160  00000+0  50005-4 0  9997
2 41925  86.3909  74.6304 0002043  88.7116 271.4314 14.34217545374497
IRIDIUM 111             
1 41926U 17003K   24070.48015908  .00000331  00000+0  11104-3 0  9997
2 41926  86.3913  74.6862 0001979  95.8957 264.2465 14.34217558374470
IRIDIUM 113             
1 42803U 17039A   24070.39035950  .00000368  00000+0  12432-3 0  9995
2 42803  86.3967 308.5157 0001878  88.9972 271.1439 14.34217525352397
IRIDIUM 123             
1 42804U 17039B   24070.50160710  .00000218  00000+0  70646-4 0  9998
2 42804  86.4017 339.9625 0001978  87.1367 273.0055 14.34219202351177
IRIDIUM 120             
1 42805U 17039C   24070.59332417  .00000259  00000+0  85510-4 0  9994
2 42805  86.3950 308.3208 0002183  85.4531 274.6914 14.34217759352417
IRIDIUM 115             
1 42806U 17039D   24070.47638206  .00000471  00000+0  13391-3 0  9990
2 42806  86.4493 308.3798 0001959  89.3416 270.8009 14.43276570354736
IRIDIUM 118             
1 42807U 17039E   24070.46354757  .00000288  00000+0  95864-4 0  9998
2 42807  86.4016 339.9800 0002109  83.9591 276.1845 14.34220307351162
IRIDIUM 117             
1 42808U 17039F   24070.27325906  .00000389  00000+0  13169-3 0  9991
2 42808  86.4016 340.0247 0002046  90.9430 269.2000 14.34223438351165
